[{"OBJECT_NAME":"STARLINK-5964","OBJECT_ID":"2023-042Z","EPOCH":"2026-03-09T00:25:17.622048","MEAN_MOTION":15.02616862,"ECCENTRICITY":0.00015763,"INCLINATION":43.0047,"RA_OF_ASC_NODE":59.3853,"ARG_OF_PERICENTER":249.2966,"MEAN_ANOMALY":110.7707,"EPHEMERIS_TYPE":0,"CLASSIFICATION_TYPE":"U","NORAD_CAT_ID":56009,"ELEMENT_SET_NO":999,"REV_AT_EPOCH":16281,"BSTAR":-0.001285248,"MEAN_MOTION_DOT":-0.00017559,"MEAN_MOTION_DDOT":0},{"OBJECT_NAME":"PICO-02A021","OBJECT_ID":"2024-149BY","EPOCH":"2026-03-09T03:41:37.126752","MEAN_MOTION":15.02201963,"ECCENTRICITY":0.00041954,"INCLINATION":97.6823,"RA_OF_ASC_NODE":147.908,"ARG_OF_PERICENTER":9.5557,"MEAN_ANOMALY":350.5747,"EPHEMERIS_TYPE":0,"CLASSIFICATION_TYPE":"U","NORAD_CAT_ID":60538,"ELEMENT_SET_NO":999,"REV_AT_EPOCH":8471,"BSTAR":0.00064833457,"MEAN_MOTION_DOT":8.488e-5,"MEAN_MOTION_DDOT":0}]
