STARLINK-5964           
1 56009U 23042Z   26068.01756507 -.00017559  00000+0 -12852-2 0  9992
2 56009  43.0047  59.3853 0001576 249.2966 110.7707 15.02616862162818
PICO-02A021             
1 60538U 24149BY  26068.15390193  .00008488  00000+0  64833-3 0  9999
2 60538  97.6823 147.9080 0004195   9.5557 350.5747 15.02201963 84718
